[Satellite]
VERSION=1.1
NAME=INTEGRAL
NICKNAME=INTEGRAL
TLE1=1 27540U 02048A   17187.49491033  .00000770  00000-0  00000-0 0  9993
TLE2=2 27540  49.7330 187.6097 8267882 262.3754   0.4199  0.37600453  3682
